SL-14 R/B               
1 21423U 91042B   25344.35092370  .00000752  00000+0  92241-4 0  9990
2 21423  82.4924 303.9630 0017234 169.4505 190.7074 14.81735391839846
ERS-1                   
1 21574U 91050A   25344.51243943  .00000512  00000+0  17830-3 0  9992
2 21574  98.7905 355.5115 0032977 106.4432 254.0384 14.39361733802907
ARIANE 40 R/B           
1 21610U 91050F   25344.42860286  .00000582  00000+0  18703-3 0  9995
2 21610  98.2167  34.9424 0002923   8.2561 351.8677 14.42810455806127
INTERCOSMOS 25          
1 21819U 91086A   25344.48880793  .00002326  00000+0  46194-3 0  9999
2 21819  82.6075   3.9369 1486777 309.2484  38.5536 12.11716422485881
SL-8 R/B                
1 21876U 92008B   25344.50881082  .00000170  00000+0  15868-3 0  9991
2 21876  82.9264 334.1059 0035326  25.9274  89.6674 13.75958177697151
SL-8 R/B                
1 21938U 92020B   25344.15973211  .00000122  00000+0  11040-3 0  9996
2 21938  82.9310 220.2333 0028724 185.4192 285.8798 13.75526396688822
USA 81                  
1 21949U 92023A   25344.51908227  .00000271  00000+0  93067-4 0  9991
2 21949  85.0082 182.8570 0001502  63.5925 296.5422 14.32325611 82029
COSMOS 2219             
1 22219U 92076A   25344.31948053 -.00000094  00000+0 -24422-4 0  9993
2 22219  71.0585 204.8924 0019043 330.1450  29.8585 14.14062525705746
SL-16 R/B               
1 22220U 92076B   25344.54634404 -.00000139  00000+0 -45188-4 0  9994
2 22220  71.0008  16.1527 0014876 237.1892 274.6172 14.16841056709209
COSMOS 2221             
1 22236U 92080A   25344.47643698  .00003096  00000+0  27497-3 0  9998
2 22236  82.5047   4.4917 0015895 128.5701 231.6948 14.95746727767454
SL-16 R/B               
1 22285U 92093B   25344.34127673  .00000264  00000+0  15950-3 0  9997
2 22285  71.0200 191.8308 0002125  79.5218 280.6145 14.15427653700510
COSMOS 2228             
1 22286U 92094A   25344.55096292  .00004195  00000+0  36420-3 0  9996
2 22286  82.5181 322.6286 0016406 239.3972 120.5633 14.96712446762726
