CCSDS_OMM_VERS = 2.0
CREATION_DATE  = 
ORIGINATOR     = 

OBJECT_NAME    = SL-14 R/B
OBJECT_ID      = 1991-042B
CENTER_NAME    = EARTH
REF_FRAME      = TEME
TIME_SYSTEM    = UTC
MEAN_ELEMENT_THEORY = SGP/SGP4

EPOCH          = 2025-12-10T08:25:19.807680
MEAN_MOTION    = 14.81735391
ECCENTRICITY   = .00172344
INCLINATION    = 82.4924
RA_OF_ASC_NODE = 303.9630
ARG_OF_PERICENTER = 169.4505
MEAN_ANOMALY   = 190.7074

EPHEMERIS_TYPE = 0
CLASSIFICATION_TYPE = U
NORAD_CAT_ID   = 21423
ELEMENT_SET_NO = 999
REV_AT_EPOCH   = 83984
BSTAR          = .92240888E-4
MEAN_MOTION_DOT = .752E-5
MEAN_MOTION_DDOT = 0

CCSDS_OMM_VERS = 2.0
CREATION_DATE  = 
ORIGINATOR     = 

OBJECT_NAME    = ERS-1
OBJECT_ID      = 1991-050A
CENTER_NAME    = EARTH
REF_FRAME      = TEME
TIME_SYSTEM    = UTC
MEAN_ELEMENT_THEORY = SGP/SGP4

EPOCH          = 2025-12-10T12:17:54.766752
MEAN_MOTION    = 14.39361733
ECCENTRICITY   = .00329776
INCLINATION    = 98.7905
RA_OF_ASC_NODE = 355.5115
ARG_OF_PERICENTER = 106.4432
MEAN_ANOMALY   = 254.0384

EPHEMERIS_TYPE = 0
CLASSIFICATION_TYPE = U
NORAD_CAT_ID   = 21574
ELEMENT_SET_NO = 999
REV_AT_EPOCH   = 80290
BSTAR          = .17829635E-3
MEAN_MOTION_DOT = .512E-5
MEAN_MOTION_DDOT = 0

CCSDS_OMM_VERS = 2.0
CREATION_DATE  = 
ORIGINATOR     = 

OBJECT_NAME    = ARIANE 40 R/B
OBJECT_ID      = 1991-050F
CENTER_NAME    = EARTH
REF_FRAME      = TEME
TIME_SYSTEM    = UTC
MEAN_ELEMENT_THEORY = SGP/SGP4

EPOCH          = 2025-12-10T10:17:11.287104
MEAN_MOTION    = 14.42810455
ECCENTRICITY   = .00029235
INCLINATION    = 98.2167
RA_OF_ASC_NODE = 34.9424
ARG_OF_PERICENTER = 8.2561
MEAN_ANOMALY   = 351.8677

EPHEMERIS_TYPE = 0
CLASSIFICATION_TYPE = U
NORAD_CAT_ID   = 21610
ELEMENT_SET_NO = 999
REV_AT_EPOCH   = 80612
BSTAR          = .18702864E-3
MEAN_MOTION_DOT = .582E-5
MEAN_MOTION_DDOT = 0

CCSDS_OMM_VERS = 2.0
CREATION_DATE  = 
ORIGINATOR     = 

OBJECT_NAME    = INTERCOSMOS 25
OBJECT_ID      = 1991-086A
CENTER_NAME    = EARTH
REF_FRAME      = TEME
TIME_SYSTEM    = UTC
MEAN_ELEMENT_THEORY = SGP/SGP4

EPOCH          = 2025-12-10T11:43:53.005152
MEAN_MOTION    = 12.11716422
ECCENTRICITY   = .1486777
INCLINATION    = 82.6075
RA_OF_ASC_NODE = 3.9369
ARG_OF_PERICENTER = 309.2484
MEAN_ANOMALY   = 38.5536

EPHEMERIS_TYPE = 0
CLASSIFICATION_TYPE = U
NORAD_CAT_ID   = 21819
ELEMENT_SET_NO = 999
REV_AT_EPOCH   = 48588
BSTAR          = .4619402E-3
MEAN_MOTION_DOT = .2326E-4
MEAN_MOTION_DDOT = 0

CCSDS_OMM_VERS = 2.0
CREATION_DATE  = 
ORIGINATOR     = 

OBJECT_NAME    = SL-8 R/B
OBJECT_ID      = 1992-008B
CENTER_NAME    = EARTH
REF_FRAME      = TEME
TIME_SYSTEM    = UTC
MEAN_ELEMENT_THEORY = SGP/SGP4

EPOCH          = 2025-12-10T12:12:41.254848
MEAN_MOTION    = 13.75958177
ECCENTRICITY   = .0035326
INCLINATION    = 82.9264
RA_OF_ASC_NODE = 334.1059
ARG_OF_PERICENTER = 25.9274
MEAN_ANOMALY   = 89.6674

EPHEMERIS_TYPE = 0
CLASSIFICATION_TYPE = U
NORAD_CAT_ID   = 21876
ELEMENT_SET_NO = 999
REV_AT_EPOCH   = 69715
BSTAR          = .15868378E-3
MEAN_MOTION_DOT = .17E-5
MEAN_MOTION_DDOT = 0

CCSDS_OMM_VERS = 2.0
CREATION_DATE  = 
ORIGINATOR     = 

OBJECT_NAME    = SL-8 R/B
OBJECT_ID      = 1992-020B
CENTER_NAME    = EARTH
REF_FRAME      = TEME
TIME_SYSTEM    = UTC
MEAN_ELEMENT_THEORY = SGP/SGP4

EPOCH          = 2025-12-10T03:50:00.854304
MEAN_MOTION    = 13.75526396
ECCENTRICITY   = .00287244
INCLINATION    = 82.9310
RA_OF_ASC_NODE = 220.2333
ARG_OF_PERICENTER = 185.4192
MEAN_ANOMALY   = 285.8798

EPHEMERIS_TYPE = 0
CLASSIFICATION_TYPE = U
NORAD_CAT_ID   = 21938
ELEMENT_SET_NO = 999
REV_AT_EPOCH   = 68882
BSTAR          = .11039922E-3
MEAN_MOTION_DOT = .122E-5
MEAN_MOTION_DDOT = 0

CCSDS_OMM_VERS = 2.0
CREATION_DATE  = 
ORIGINATOR     = 

OBJECT_NAME    = USA 81
OBJECT_ID      = 1992-023A
CENTER_NAME    = EARTH
REF_FRAME      = TEME
TIME_SYSTEM    = UTC
MEAN_ELEMENT_THEORY = SGP/SGP4

EPOCH          = 2025-12-10T12:27:28.708128
MEAN_MOTION    = 14.32325611
ECCENTRICITY   = .00015021
INCLINATION    = 85.0082
RA_OF_ASC_NODE = 182.8570
ARG_OF_PERICENTER = 63.5925
MEAN_ANOMALY   = 296.5422

EPHEMERIS_TYPE = 0
CLASSIFICATION_TYPE = U
NORAD_CAT_ID   = 21949
ELEMENT_SET_NO = 999
REV_AT_EPOCH   = 8202
BSTAR          = .93066507E-4
MEAN_MOTION_DOT = .271E-5
MEAN_MOTION_DDOT = 0

CCSDS_OMM_VERS = 2.0
CREATION_DATE  = 
ORIGINATOR     = 

OBJECT_NAME    = COSMOS 2219
OBJECT_ID      = 1992-076A
CENTER_NAME    = EARTH
REF_FRAME      = TEME
TIME_SYSTEM    = UTC
MEAN_ELEMENT_THEORY = SGP/SGP4

EPOCH          = 2025-12-10T07:40:03.117792
MEAN_MOTION    = 14.14062525
ECCENTRICITY   = .00190435
INCLINATION    = 71.0585
RA_OF_ASC_NODE = 204.8924
ARG_OF_PERICENTER = 330.1450
MEAN_ANOMALY   = 29.8585

EPHEMERIS_TYPE = 0
CLASSIFICATION_TYPE = U
NORAD_CAT_ID   = 22219
ELEMENT_SET_NO = 999
REV_AT_EPOCH   = 70574
BSTAR          = -.2442227E-4
MEAN_MOTION_DOT = -.94E-6
MEAN_MOTION_DDOT = 0

CCSDS_OMM_VERS = 2.0
CREATION_DATE  = 
ORIGINATOR     = 

OBJECT_NAME    = SL-16 R/B
OBJECT_ID      = 1992-076B
CENTER_NAME    = EARTH
REF_FRAME      = TEME
TIME_SYSTEM    = UTC
MEAN_ELEMENT_THEORY = SGP/SGP4

EPOCH          = 2025-12-10T13:06:44.125056
MEAN_MOTION    = 14.16841056
ECCENTRICITY   = .00148763
INCLINATION    = 71.0008
RA_OF_ASC_NODE = 16.1527
ARG_OF_PERICENTER = 237.1892
MEAN_ANOMALY   = 274.6172

EPHEMERIS_TYPE = 0
CLASSIFICATION_TYPE = U
NORAD_CAT_ID   = 22220
ELEMENT_SET_NO = 999
REV_AT_EPOCH   = 70920
BSTAR          = -.45187609E-4
MEAN_MOTION_DOT = -.139E-5
MEAN_MOTION_DDOT = 0

CCSDS_OMM_VERS = 2.0
CREATION_DATE  = 
ORIGINATOR     = 

OBJECT_NAME    = COSMOS 2221
OBJECT_ID      = 1992-080A
CENTER_NAME    = EARTH
REF_FRAME      = TEME
TIME_SYSTEM    = UTC
MEAN_ELEMENT_THEORY = SGP/SGP4

EPOCH          = 2025-12-10T11:26:04.155072
MEAN_MOTION    = 14.95746727
ECCENTRICITY   = .00158957
INCLINATION    = 82.5047
RA_OF_ASC_NODE = 4.4917
ARG_OF_PERICENTER = 128.5701
MEAN_ANOMALY   = 231.6948

EPHEMERIS_TYPE = 0
CLASSIFICATION_TYPE = U
NORAD_CAT_ID   = 22236
ELEMENT_SET_NO = 999
REV_AT_EPOCH   = 76745
BSTAR          = .27497191E-3
MEAN_MOTION_DOT = .3096E-4
MEAN_MOTION_DDOT = 0

CCSDS_OMM_VERS = 2.0
CREATION_DATE  = 
ORIGINATOR     = 

OBJECT_NAME    = SL-16 R/B
OBJECT_ID      = 1992-093B
CENTER_NAME    = EARTH
REF_FRAME      = TEME
TIME_SYSTEM    = UTC
MEAN_ELEMENT_THEORY = SGP/SGP4

EPOCH          = 2025-12-10T08:11:26.309472
MEAN_MOTION    = 14.15427653
ECCENTRICITY   = .00021253
INCLINATION    = 71.0200
RA_OF_ASC_NODE = 191.8308
ARG_OF_PERICENTER = 79.5218
MEAN_ANOMALY   = 280.6145

EPHEMERIS_TYPE = 0
CLASSIFICATION_TYPE = U
NORAD_CAT_ID   = 22285
ELEMENT_SET_NO = 999
REV_AT_EPOCH   = 70051
BSTAR          = .15949955E-3
MEAN_MOTION_DOT = .264E-5
MEAN_MOTION_DDOT = 0

CCSDS_OMM_VERS = 2.0
CREATION_DATE  = 
ORIGINATOR     = 

OBJECT_NAME    = COSMOS 2228
OBJECT_ID      = 1992-094A
CENTER_NAME    = EARTH
REF_FRAME      = TEME
TIME_SYSTEM    = UTC
MEAN_ELEMENT_THEORY = SGP/SGP4

EPOCH          = 2025-12-10T13:13:23.196288
MEAN_MOTION    = 14.96712446
ECCENTRICITY   = .00164063
INCLINATION    = 82.5181
RA_OF_ASC_NODE = 322.6286
ARG_OF_PERICENTER = 239.3972
MEAN_ANOMALY   = 120.5633

EPHEMERIS_TYPE = 0
CLASSIFICATION_TYPE = U
NORAD_CAT_ID   = 22286
ELEMENT_SET_NO = 999
REV_AT_EPOCH   = 76272
BSTAR          = .36419921E-3
MEAN_MOTION_DOT = .4195E-4
MEAN_MOTION_DDOT = 0

